[Satellite]
VERSION=1.1
NAME=GALAXY 16 (G-16)
NICKNAME=GALAXY 16 (G-16)
TLE1=1 29236U 06023A   15055.54452074 -.00000153  00000-0  10000-3 0  9994
TLE2=2 29236   0.0395 263.6207 0003226  77.7323 269.7346  1.00271412 31840
